[{"OBJECT_NAME":"STARLINK-30384","OBJECT_ID":"2023-134D","EPOCH":"2026-03-09T22:00:01.999584","MEAN_MOTION":15.17829384,"ECCENTRICITY":0.00022152,"INCLINATION":43,"RA_OF_ASC_NODE":195.5861,"ARG_OF_PERICENTER":278.8011,"MEAN_ANOMALY":78.3931,"EPHEMERIS_TYPE":0,"CLASSIFICATION_TYPE":"U","NORAD_CAT_ID":57774,"ELEMENT_SET_NO":999,"REV_AT_EPOCH":572,"BSTAR":0.0038674062,"MEAN_MOTION_DOT":0.0008037,"MEAN_MOTION_DDOT":0},{"OBJECT_NAME":"CZ-2D DEB","OBJECT_ID":"2010-027D","EPOCH":"2026-03-07T13:36:06.977952","MEAN_MOTION":15.23568143,"ECCENTRICITY":0.0065729,"INCLINATION":97.6621,"RA_OF_ASC_NODE":290.9585,"ARG_OF_PERICENTER":344.0278,"MEAN_ANOMALY":15.8885,"EPHEMERIS_TYPE":0,"CLASSIFICATION_TYPE":"U","NORAD_CAT_ID":38299,"ELEMENT_SET_NO":999,"REV_AT_EPOCH":83553,"BSTAR":0.0024156,"MEAN_MOTION_DOT":0.00061723,"MEAN_MOTION_DDOT":0}]
